{
  "original_analysis": {
    "covered_bins": 36,
    "total_bins": 36,
    "coverage_percent": 100.0,
    "distribution": {
      "9": 237,
      "7": 299,
      "11": 222,
      "5": 175,
      "6": 300,
      "34": 325,
      "8": 363,
      "10": 232,
      "13": 201,
      "12": 224,
      "22": 212,
      "24": 224,
      "25": 247,
      "20": 215,
      "21": 242,
      "23": 181,
      "4": 241,
      "18": 188,
      "16": 270,
      "17": 215,
      "19": 179,
      "15": 218,
      "29": 262,
      "27": 245,
      "31": 186,
      "26": 243,
      "28": 166,
      "3": 343,
      "1": 143,
      "33": 312,
      "35": 308,
      "32": 245,
      "30": 297,
      "14": 166,
      "0": 274,
      "2": 295
    },
    "total_satellites": 8695
  },
  "phase2_results": {
    "phase": "Phase 2 - Orbital Diversity Filtering",
    "input_count": 8695,
    "output_count": 500,
    "reduction_ratio": 0.05750431282346176,
    "selected_satellites": [
      {
        "OBJECT_NAME": "STARLINK-6204",
        "OBJECT_ID": "2023-064AS",
        "EPOCH": "2025-07-31T16:07:05.349216",
        "MEAN_MOTION": 14.98340116,
        "ECCENTRICITY": 0.000299,
        "INCLINATION": 70,
        "RA_OF_ASC_NODE": 301.8224,
        "ARG_OF_PERICENTER": 271.0875,
        "MEAN_ANOMALY": 88.9941,
        "EPHEMERIS_TYPE": 0,
        "CLASSIFICATION_TYPE": "U",
        "NORAD_CAT_ID": 56488,
        "ELEMENT_SET_NO": 999,
        "REV_AT_EPOCH": 12312,
        "BSTAR": -8.4608e-05,
        "MEAN_MOTION_DOT": -1.103e-05,
        "MEAN_MOTION_DDOT": 0,
        "constellation": "starlink",
        "quality_scores": {
          "orbital_stability": 21.677146133333338,
          "coverage_uniformity": 20,
          "handover_frequency": 18.535822222222222,
          "signal_quality": 25,
          "total_score": 85.21296835555556
        }
      },
      {
        "OBJECT_NAME": "STARLINK-5873",
        "OBJECT_ID": "2023-064AU",
        "EPOCH": "2025-07-31T16:19:06.413376",
        "MEAN_MOTION": 14.98333386,
        "ECCENTRICITY": 0.000331,
        "INCLINATION": 70.0004,
        "RA_OF_ASC_NODE": 301.8512,
        "ARG_OF_PERICENTER": 270.5,
        "MEAN_ANOMALY": 89.578,
        "EPHEMERIS_TYPE": 0,
        "CLASSIFICATION_TYPE": "U",
        "NORAD_CAT_ID": 56490,
        "ELEMENT_SET_NO": 999,
        "REV_AT_EPOCH": 12312,
        "BSTAR": 4.2021e-05,
        "MEAN_MOTION_DOT": 4.08e-06,
        "MEAN_MOTION_DDOT": 0,
        "constellation": "starlink",
        "quality_scores": {
          "orbital_stability": 21.672570466666667,
          "coverage_uniformity": 20,
          "handover_frequency": 18.539022222222222,
          "signal_quality": 25,
          "total_score": 85.21159268888889
        }
      },
      {
        "OBJECT_NAME": "STARLINK-5634",
        "OBJECT_ID": "2023-014BA",
        "EPOCH": "2025-07-31T15:00:59.368032",
        "MEAN_MOTION": 14.98331296,
        "ECCENTRICITY": 0.000384,
        "INCLINATION": 70.0005,
        "RA_OF_ASC_NODE": 301.9124,
        "ARG_OF_PERICENTER": 274.2217,
        "MEAN_ANOMALY": 85.8503,
        "EPHEMERIS_TYPE": 0,
        "CLASSIFICATION_TYPE": "U",
        "NORAD_CAT_ID": 55439,
        "ELEMENT_SET_NO": 999,
        "REV_AT_EPOCH": 13795,
        "BSTAR": 1.1282e-05,
        "MEAN_MOTION_DOT": 4.2e-07,
        "MEAN_MOTION_DDOT": 0,
        "constellation": "starlink",
        "quality_scores": {
          "orbital_stability": 21.664690133333337,
          "coverage_uniformity": 20,
          "handover_frequency": 18.54582222222222,
          "signal_quality": 25,
          "total_score": 85.21051235555555
        }
      },
      {
        "OBJECT_NAME": "STARLINK-5923",
        "OBJECT_ID": "2023-064AT",
        "EPOCH": "2025-07-31T15:49:03.013824",
        "MEAN_MOTION": 14.98336191,
        "ECCENTRICITY": 0.0003221,
        "INCLINATION": 70.0002,
        "RA_OF_ASC_NODE": 301.7793,
        "ARG_OF_PERICENTER": 270.5648,
        "MEAN_ANOMALY": 89.5142,
        "EPHEMERIS_TYPE": 0,
        "CLASSIFICATION_TYPE": "U",
        "NORAD_CAT_ID": 56489,
        "ELEMENT_SET_NO": 999,
        "REV_AT_EPOCH": 12312,
        "BSTAR": -0.00016091,
        "MEAN_MOTION_DOT": -2.013e-05,
        "MEAN_MOTION_DDOT": 0,
        "constellation": "starlink",
        "quality_scores": {
          "orbital_stability": 21.67381196666667,
          "coverage_uniformity": 20,
          "handover_frequency": 18.53103333333333,
          "signal_quality": 25,
          "total_score": 85.2048453
        }
      },
      {
        "OBJECT_NAME": "STARLINK-5842",
        "OBJECT_ID": "2023-064AV",
        "EPOCH": "2025-07-31T15:43:02.646336",
        "MEAN_MOTION": 14.98330192,
        "ECCENTRICITY": 0.0003215,
        "INCLINATION": 70.0004,
        "RA_OF_ASC_NODE": 301.7655,
        "ARG_OF_PERICENTER": 269.5968,
        "MEAN_ANOMALY": 90.4823,
        "EPHEMERIS_TYPE": 0,
        "CLASSIFICATION_TYPE": "U",
        "NORAD_CAT_ID": 56491,
        "ELEMENT_SET_NO": 999,
        "REV_AT_EPOCH": 12312,
        "BSTAR": 1.7916e-05,
        "MEAN_MOTION_DOT": 1.21e-06,
        "MEAN_MOTION_DDOT": 0,
        "constellation": "starlink",
        "quality_scores": {
          "orbital_stability": 21.674101933333333,
          "coverage_uniformity": 20,
          "handover_frequency": 18.5295,
          "signal_quality": 25,
          "total_score": 85.20360193333333
        }
      },
      {
        "OBJECT_NAME": "STARLINK-5529",
        "OBJECT_ID": "2023-064AZ",
        "EPOCH": "2025-07-31T15:25:00.989184",
        "MEAN_MOTION": 14.98327729,
        "ECCENTRICITY": 0.0003079,
        "INCLINATION": 70.0006,
        "RA_OF_ASC_NODE": 301.7219,
        "ARG_OF_PERICENTER": 267.9441,
        "MEAN_ANOMALY": 92.1365,
        "EPHEMERIS_TYPE": 0,
        "CLASSIFICATION_TYPE": "U",
        "NORAD_CAT_ID": 56495,
        "ELEMENT_SET_NO": 999,
        "REV_AT_EPOCH": 12312,
        "BSTAR": -5.1044e-05,
        "MEAN_MOTION_DOT": -7.02e-06,
        "MEAN_MOTION_DDOT": 0,
        "constellation": "starlink",
        "quality_scores": {
          "orbital_stability": 21.676224033333334,
          "coverage_uniformity": 20,
          "handover_frequency": 18.524655555555555,
          "signal_quality": 25,
          "total_score": 85.20087958888888
        }
      }