STARLINK-5634           
1 55439U 23014BA  25212.62568713  .00000042  00000+0  11282-4 0  9999
2 55439  70.0005 301.9124 0003840 274.2217  85.8503 14.98331296137950
STARLINK-6204           
1 56488U 23064AS  25212.67158969 -.00001103  00000+0 -84608-4 0  9995
2 56488  70.0000 301.8224 0002990 271.0875  88.9941 14.98340116123125
STARLINK-5923           
1 56489U 23064AT  25212.65906266 -.00002013  00000+0 -16091-3 0  9996
2 56489  70.0002 301.7793 0003221 270.5648  89.5142 14.98336191123126
STARLINK-5873           
1 56490U 23064AU  25212.67993534  .00000408  00000+0  42021-4 0  9991
2 56490  70.0004 301.8512 0003310 270.5000  89.5780 14.98333386123122
STARLINK-5842           
1 56491U 23064AV  25212.65489174  .00000121  00000+0  17916-4 0  9997
2 56491  70.0004 301.7655 0003215 269.5968  90.4823 14.98330192123126
STARLINK-5529           
1 56495U 23064AZ  25212.64237256 -.00000702  00000+0 -51044-4 0  9999
2 56495  70.0006 301.7219 0003079 267.9441  92.1365 14.98327729123126
